     2.10           G: GLONASS NAV DATA                     RINEX VERSION / TYPE
teqc  2015Jun23                         20211019 01:25:47UTCPGM / RUN BY / DATE
Linux 2.4.21-27.ELsmp|Opteron|gcc -static|Linux x86_64|=+   COMMENT
  2021     9    25    9.313225746155D-10                    CORR TO SYSTEM TIME
                                                            END OF HEADER
 2 21  9 26 15 45  0.0 4.946151748300D-04 0.000000000000D+00 5.580000000000D+04
    2.575332519531D+03-4.053878784180D-01 0.000000000000D+00 0.000000000000D+00
    2.261516699219D+04-1.525470733643D+00-0.000000000000D+00-4.000000000000D+00
   -1.141443896484D+04-3.109941482544D+00 0.000000000000D+00 0.000000000000D+00
 3 21  9 26 15 45  0.0 4.365388303995D-05 0.000000000000D+00 5.580000000000D+04
    1.127975048828D+04 4.274644851685D-01-0.000000000000D+00 0.000000000000D+00
    2.207720361328D+04 7.002840042114D-01-9.313225746155D-10 5.000000000000D+00
    5.915806640625D+03-3.454703330994D+00-9.313225746155D-10 0.000000000000D+00
24 21  9 26 15 45  0.0 6.021838635206D-05 1.818989403546D-12 5.580000000000D+04
   -1.065920214844D+04-8.560857772827D-01-9.313225746155D-10 0.000000000000D+00
    2.039941845703D+04 1.254291534424D+00-0.000000000000D+00 2.000000000000D+00
   -1.100812353516D+04 3.146447181702D+00 9.313225746155D-10 0.000000000000D+00
17 21  9 26 15 45  0.0 4.617311060429D-04 2.728484105319D-12 5.619000000000D+04
    2.886257812500D+03-1.888554573059D+00 9.313225746155D-10 0.000000000000D+00
    1.227556250000D+04 2.384037017822D+00-0.000000000000D+00 4.000000000000D+00
   -2.217459814453D+04 1.069025039673D+00 9.313225746155D-10 0.000000000000D+00
23 21  9 26 16 15  0.0-1.453142613173D-05-9.094947017729D-13 5.760000000000D+04
   -1.617173193359D+04 8.920354843140D-01-2.793967723846D-09 0.000000000000D+00
    1.734568945312D+04-9.601249694824D-01 0.000000000000D+00 3.000000000000D+00
    9.398453125000D+03 3.302923202515D+00 0.000000000000D+00 0.000000000000D+00
 3 21  9 26 16 15  0.0 4.365481436253D-05 0.000000000000D+00 5.760000000000D+04
    1.179808691406D+04 1.088190078735D-01 0.000000000000D+00 0.000000000000D+00
    2.257697949219D+04-1.340093612671D-01-9.313225746155D-10 5.000000000000D+00
   -4.514379882812D+02-3.573952674866D+00-0.000000000000D+00 0.000000000000D+00
 2 21  9 26 16 15  0.0 4.946170374751D-04 0.000000000000D+00 5.760000000000D+04
    1.369105468750D+03-9.516468048096D-01 0.000000000000D+00 0.000000000000D+00
    1.934701513672D+04-2.063341140747D+00-0.000000000000D+00-4.000000000000D+00
   -1.649594921875D+04-2.499313354492D+00 9.313225746155D-10 0.000000000000D+00
17 21  9 26 16 15  0.0 4.617366939783D-04 2.728484105319D-12 5.760000000000D+04
   -4.614746093750D+00-1.310064315796D+00 0.000000000000D+00 0.000000000000D+00
    1.655422900391D+04 2.320702552795D+00-0.000000000000D+00 4.000000000000D+00
   -1.941848046875D+04 1.973336219788D+00 9.313225746155D-10 0.000000000000D+00
24 21  9 26 16 15  0.0 6.022118031979D-05 1.818989403546D-12 5.760000000000D+04
   -1.160991601562D+04-2.204170227051D-01-1.862645149231D-09 0.000000000000D+00
    2.216926757812D+04 6.744480133057D-01 0.000000000000D+00 2.000000000000D+00
   -4.992366699219D+03 3.494328498840D+00 9.313225746155D-10 0.000000000000D+00
 4 21  9 26 16 15  0.0 1.066066324711D-04 1.818989403546D-12 5.886000000000D+04
    1.526599316406D+04 1.119213104248D+00-0.000000000000D+00 0.000000000000D+00
    1.318092919922D+04 1.825679779053D+00-9.313225746155D-10 6.000000000000D+00
    1.563064306641D+04-2.636964797974D+00-1.862645149231D-09 0.000000000000D+00
23 21  9 26 16 45  0.0-1.453422009945D-05-9.094947017729D-13 5.940000000000D+04
   -1.438467431641D+04 1.048135757446D+00-2.793967723846D-09 0.000000000000D+00
    1.488481054688D+04-1.767227172852D+00 9.313225746155D-10 3.000000000000D+00
    1.490354785156D+04 2.774107933044D+00 0.000000000000D+00 0.000000000000D+00
 3 21  9 26 16 45  0.0 4.365481436253D-05 0.000000000000D+00 5.940000000000D+04
    1.154366406250D+04-4.215345382690D-01 0.000000000000D+00 0.000000000000D+00
    2.166675146484D+04-8.490743637085D-01-0.000000000000D+00 5.000000000000D+00
   -6.783563476562D+03-3.415840148926D+00 0.000000000000D+00 0.000000000000D+00
 2 21  9 26 16 45  0.0 4.946179687977D-04 0.000000000000D+00 5.940000000000D+04
   -8.793007812500D+02-1.545326232910D+00 0.000000000000D+00 0.000000000000D+00
    1.535399121094D+04-2.324648857117D+00-0.000000000000D+00-4.000000000000D+00
   -2.029516552734D+04-1.694531440735D+00 1.862645149231D-09 0.000000000000D+00
 4 21  9 26 16 45  0.0 1.066103577614D-04 1.818989403546D-12 5.940000000000D+04
    1.717049169922D+04 9.523839950562D-01-0.000000000000D+00 0.000000000000D+00
    1.578204736328D+04 1.057091712952D+00-9.313225746155D-10 6.000000000000D+00
    1.034159472656D+04-3.201685905457D+00-1.862645149231D-09 0.000000000000D+00
17 21  9 26 16 45  0.0 4.617422819138D-04 2.728484105319D-12 5.940000000000D+04
   -1.815864257812D+03-7.080421447754D-01-0.000000000000D+00 0.000000000000D+00
    2.045165429688D+04 1.961575508118D+00-0.000000000000D+00 4.000000000000D+00
   -1.516264013672D+04 2.724628448486D+00 9.313225746155D-10 0.000000000000D+00
24 21  9 26 16 45  0.0 6.022397428751D-05 1.818989403546D-12 5.940000000000D+04
   -1.155211962891D+04 2.506361007690D-01-1.862645149231D-09 0.000000000000D+00
    2.271488769531D+04-9.186363220215D-02 0.000000000000D+00 2.000000000000D+00
    1.409035644531D+03 3.572208404541D+00 9.313225746155D-10 0.000000000000D+00
13 21  9 26 16 45  0.0-6.125308573246D-05-0.000000000000D+00 6.057000000000D+04
   -1.348406787109D+04-2.557077407837D+00-2.793967723846D-09 0.000000000000D+00
    1.062428515625D+04 3.806848526001D-01 9.313225746155D-10-2.000000000000D+00
    1.885763427734D+04-2.042098045349D+00-0.000000000000D+00 0.000000000000D+00
23 21  9 26 17 15  0.0-1.453608274460D-05-9.094947017729D-13 6.120000000000D+04
   -1.255732861328D+04 9.409799575806D-01-2.793967723846D-09 0.000000000000D+00
    1.104426757812D+04-2.473762512207D+00 9.313225746155D-10 3.000000000000D+00
    1.925611572266D+04 2.030642509460D+00-0.000000000000D+00 0.000000000000D+00
 3 21  9 26 17 15  0.0 4.365481436253D-05 0.000000000000D+00 6.120000000000D+04
    1.019850000000D+04-1.087731361389D+00 0.000000000000D+00 0.000000000000D+00
    1.964651269531D+04-1.355040550232D+00-0.000000000000D+00 5.000000000000D+00
   -1.258873828125D+04-2.992229461670D+00 0.000000000000D+00 0.000000000000D+00
13 21  9 26 17 15  0.0-6.125494837761D-05-0.000000000000D+00 6.120000000000D+04
   -1.752322705078D+04-1.898633956909D+00-2.793967723846D-09 0.000000000000D+00
    1.153540332031D+04 5.976467132568D-01 1.862645149231D-09-2.000000000000D+00
    1.449984082031D+04-2.768425941467D+00 0.000000000000D+00 0.000000000000D+00
 2 21  9 26 17 15  0.0 4.946189001203D-04 0.000000000000D+00 6.120000000000D+04
   -4.155771484375D+03-2.075397491455D+00 0.000000000000D+00 0.000000000000D+00
    1.115355419922D+04-2.295411109924D+00-0.000000000000D+00-4.000000000000D+00
   -2.251734863281D+04-7.585678100586D-01 1.862645149231D-09 0.000000000000D+00
 4 21  9 26 17 15  0.0 1.066131517291D-04 1.818989403546D-12 6.120000000000D+04
    1.853804443359D+04 5.262107849121D-01-0.000000000000D+00 0.000000000000D+00
    1.699484082031D+04 3.022623062134D-01-9.313225746155D-10 6.000000000000D+00
    4.253255371094D+03-3.519244194031D+00-9.313225746155D-10 0.000000000000D+00
17 21  9 26 17 15  0.0 4.617488011718D-04 2.728484105319D-12 6.120000000000D+04
   -2.606214355469D+03-1.931209564209D-01-9.313225746155D-10 0.000000000000D+00
    2.345570800781D+04 1.336911201477D+00 0.000000000000D+00 4.000000000000D+00
   -9.736558105469D+03 3.265235900879D+00 9.313225746155D-10 0.000000000000D+00
24 21  9 26 17 15  0.0 6.022769957781D-05 1.818989403546D-12 6.120000000000D+04
   -1.084609326172D+04 4.923439025879D-01-2.793967723846D-09 0.000000000000D+00
    2.178534716797D+04-9.462900161743D-01 9.313225746155D-10 2.000000000000D+00
    7.701698730469D+03 3.374328613281D+00 0.000000000000D+00 0.000000000000D+00
18 21  9 26 17 15  0.0 9.174924343824D-05 9.094947017729D-13 6.189000000000D+04
    6.276700683594D+03-8.012056350708D-01 9.313225746155D-10 0.000000000000D+00
    1.215715673828D+04 2.844539642334D+00-0.000000000000D+00-3.000000000000D+00
   -2.150503662109D+04 1.376942634583D+00 9.313225746155D-10 0.000000000000D+00
13 21  9 26 17 45  0.0-6.125587970018D-05-0.000000000000D+00 6.300000000000D+04
   -2.023341699219D+04-1.097978591919D+00-1.862645149231D-09 0.000000000000D+00
    1.263766845703D+04 5.857591629028D-01 1.862645149231D-09-2.000000000000D+00
    9.020182128906D+03-3.280513763428D+00 9.313225746155D-10 0.000000000000D+00
 3 21  9 26 17 45  0.0 4.365574568510D-05 0.000000000000D+00 6.300000000000D+04
    7.608014160156D+03-1.786612510681D+00 0.000000000000D+00 0.000000000000D+00
    1.694711083984D+04-1.598355293274D+00-0.000000000000D+00 5.000000000000D+00
   -1.741561816406D+04-2.335955619812D+00 9.313225746155D-10 0.000000000000D+00
 4 21  9 26 17 45  0.0 1.066159456968D-04 1.818989403546D-12 6.300000000000D+04
    1.893469042969D+04-1.155796051025D-01-0.000000000000D+00 0.000000000000D+00
    1.694398193359D+04-3.303947448730D-01-0.000000000000D+00 6.000000000000D+00
   -2.164009277344D+03-3.564722061157D+00-0.000000000000D+00 0.000000000000D+00
17 21  9 26 17 45  0.0 4.617543891072D-04 2.728484105319D-12 6.300000000000D+04
   -2.619047363281D+03 1.430521011353D-01-1.862645149231D-09 0.000000000000D+00
    2.514829638672D+04 5.195760726929D-01 9.313225746155D-10 4.000000000000D+00
   -3.559421875000D+03 3.553778648376D+00 9.313225746155D-10 0.000000000000D+00
18 21  9 26 17 45  0.0 9.175017476082D-05 0.000000000000D+00 6.300000000000D+04
    5.306271972656D+03-2.870693206787D-01 0.000000000000D+00 0.000000000000D+00
    1.700504150391D+04 2.492047309875D+00-0.000000000000D+00-3.000000000000D+00
   -1.822535644531D+04 2.243497848511D+00 9.313225746155D-10 0.000000000000D+00
